[{"OBJECT_NAME":"QIANFAN-100","OBJECT_ID":"2025-233K","EPOCH":"2026-03-09T21:55:49.429920","MEAN_MOTION":13.51005946,"ECCENTRICITY":0.00019842,"INCLINATION":88.9954,"RA_OF_ASC_NODE":53.1359,"ARG_OF_PERICENTER":90.9885,"MEAN_ANOMALY":269.1493,"EPHEMERIS_TYPE":0,"CLASSIFICATION_TYPE":"U","NORAD_CAT_ID":66042,"ELEMENT_SET_NO":999,"REV_AT_EPOCH":1983,"BSTAR":6.7645203e-5,"MEAN_MOTION_DOT":5.6e-7,"MEAN_MOTION_DDOT":0},{"OBJECT_NAME":"FENGYUN 1C DEB","OBJECT_ID":"1999-025ESB","EPOCH":"2026-03-02T10:00:53.944128","MEAN_MOTION":13.94641295,"ECCENTRICITY":0.02258203,"INCLINATION":98.6077,"RA_OF_ASC_NODE":132.8891,"ARG_OF_PERICENTER":288.006,"MEAN_ANOMALY":69.6612,"EPHEMERIS_TYPE":0,"CLASSIFICATION_TYPE":"U","NORAD_CAT_ID":38492,"ELEMENT_SET_NO":999,"REV_AT_EPOCH":57114,"BSTAR":0.0034742976,"MEAN_MOTION_DOT":5.706e-5,"MEAN_MOTION_DDOT":0}]
